{
    "links": {
        "self": "http://www.neowsapp.com/rest/v1/neo/3836158?api_key=iIulBulltgU6a56xZRHN4H3l9WmuAYTsLGpBGhQ2"
    },
    "id": "3836158",
    "neo_reference_id": "3836158",
    "name": "(2018 VN6)",
    "designation": "2018 VN6",
    "nasa_jpl_url": "http://ssd.jpl.nasa.gov/sbdb.cgi?sstr=3836158",
    "absolute_magnitude_h": 28.2,
    "estimated_diameter": {
        "kilometers": {
            "estimated_diameter_min": 0.0060891262,
            "estimated_diameter_max": 0.0136157002
        },
        "meters": {
            "estimated_diameter_min": 6.0891262211,
            "estimated_diameter_max": 13.6157001539
        },
        "miles": {
            "estimated_diameter_min": 0.0037836064,
            "estimated_diameter_max": 0.0084604012
        },
        "feet": {
            "estimated_diameter_min": 19.9774488711,
            "estimated_diameter_max": 44.6709336928
        }
    },
    "is_potentially_hazardous_asteroid": false,
    "close_approach_data": [
        {
            "close_approach_date": "2018-11-12",
            "close_approach_date_full": "2018-Nov-12 17:30",
            "epoch_date_close_approach": 1542043800000,
            "relative_velocity": {
                "kilometers_per_second": "14.1789917677",
                "kilometers_per_hour": "51044.370363824",
                "miles_per_hour": "31716.9866852328"
            },
            "miss_distance": {
                "astronomical": "0.0047682459",
                "lunar": "1.8548476551",
                "kilometers": "713319.430276233",
                "miles": "443236.1408406954"
            },
            "orbiting_body": "Earth"
        },
        {
            "close_approach_date": "2018-11-12",
            "close_approach_date_full": "2018-Nov-12 18:42",
            "epoch_date_close_approach": 1542048120000,
            "relative_velocity": {
                "kilometers_per_second": "15.1206179076",
                "kilometers_per_hour": "54434.2244672423",
                "miles_per_hour": "33823.3101974373"
            },
            "miss_distance": {
                "astronomical": "0.0073839535",
                "lunar": "2.8723579115",
                "kilometers": "1104623.715779045",
                "miles": "686381.349059021"
            },
            "orbiting_body": "Moon"
        },
        {
            "close_approach_date": "2020-09-26",
            "close_approach_date_full": "2020-Sep-26 02:15",
            "epoch_date_close_approach": 1601086500000,
            "relative_velocity": {
                "kilometers_per_second": "4.3598314391",
                "kilometers_per_hour": "15695.3931808879",
                "miles_per_hour": "9752.5069462023"
            },
            "miss_distance": {
                "astronomical": "1.6188081396",
                "lunar": "629.7163663044",
                "kilometers": "242170249.622822652",
                "miles": "150477615.3758785176"
            },
            "orbiting_body": "Juptr"
        },
        {
            "close_approach_date": "2125-04-28",
            "close_approach_date_full": "2125-Apr-28 05:25",
            "epoch_date_close_approach": 4901491500000,
            "relative_velocity": {
                "kilometers_per_second": "18.7587194424",
                "kilometers_per_hour": "67531.389992743",
                "miles_per_hour": "41961.3795207685"
            },
            "miss_distance": {
                "astronomical": "0.0823546801",
                "lunar": "32.0359705589",
                "kilometers": "12320084.727491387",
                "miles": "7655345.6665676606"
            },
            "orbiting_body": "Mars"
        },
        {
            "close_approach_date": "2126-10-29",
            "close_approach_date_full": "2126-Oct-29 12:08",
            "epoch_date_close_approach": 4948949280000,
            "relative_velocity": {
                "kilometers_per_second": "4.3687786801",
                "kilometers_per_hour": "15727.6032484024",
                "miles_per_hour": "9772.521029542"
            },
            "miss_distance": {
                "astronomical": "1.7606176039",
                "lunar": "684.8802479171",
                "kilometers": "263384643.427943693",
                "miles": "163659628.4283132434"
            },
            "orbiting_body": "Juptr"
        }
    ],
    "orbital_data": {
        "orbit_id": "1",
        "orbit_determination_date": "2018-11-10 21:12:46",
        "first_observation_date": "2018-11-06",
        "last_observation_date": "2018-11-11",
        "data_arc_in_days": 5,
        "observations_used": 32,
        "orbit_uncertainty": "7",
        "minimum_orbit_intersection": "9.52695E-5",
        "jupiter_tisserand_invariant": "3.311",
        "epoch_osculation": "2459000.5",
        "eccentricity": ".6365999268852065",
        "semi_major_axis": "2.269112515758198",
        "inclination": "1.396768163768118",
        "ascending_node_longitude": "231.5012669137386",
        "orbital_period": "1248.482541798093",
        "perihelion_distance": ".8245956541322222",
        "perihelion_argument": "234.9129371692841",
        "aphelion_distance": "3.713629377384174",
        "perihelion_time": "2458473.084336817434",
        "mean_anomaly": "152.0803314336051",
        "mean_motion": ".2883500473154553",
        "equinox": "J2000",
        "orbit_class": {
            "orbit_class_type": "APO",
            "orbit_class_description": "Near-Earth asteroid orbits which cross the Earth’s orbit similar to that of 1862 Apollo",
            "orbit_class_range": "a (semi-major axis) > 1.0 AU; q (perihelion) < 1.017 AU"
        }
    },
    "is_sentry_object": false
}